[{"OBJECT_NAME":"STARS-AO","OBJECT_ID":"2018-084J","EPOCH":"2026-03-09T20:00:51.608160","MEAN_MOTION":15.15819992,"ECCENTRICITY":0.00030362,"INCLINATION":98.062,"RA_OF_ASC_NODE":276.6974,"ARG_OF_PERICENTER":126.1891,"MEAN_ANOMALY":233.9621,"EPHEMERIS_TYPE":0,"CLASSIFICATION_TYPE":"U","NORAD_CAT_ID":43679,"ELEMENT_SET_NO":999,"REV_AT_EPOCH":40241,"BSTAR":0.00043170347,"MEAN_MOTION_DOT":8.179e-5,"MEAN_MOTION_DDOT":0},{"OBJECT_NAME":"XIWANG-5 02","OBJECT_ID":"2025-296A","EPOCH":"2026-03-09T21:42:05.145408","MEAN_MOTION":15.14679874,"ECCENTRICITY":0.00016159,"INCLINATION":41.3524,"RA_OF_ASC_NODE":326.5092,"ARG_OF_PERICENTER":203.554,"MEAN_ANOMALY":156.5206,"EPHEMERIS_TYPE":0,"CLASSIFICATION_TYPE":"U","NORAD_CAT_ID":67069,"ELEMENT_SET_NO":999,"REV_AT_EPOCH":1317,"BSTAR":0.00063449383,"MEAN_MOTION_DOT":0.00011786,"MEAN_MOTION_DDOT":0}]
